{"type":"FeatureCollection","features":[{"type":"Feature","properties":{"name":"Boston Marathon course","miles":26.5,"race":"Boston Marathon","traced_by":"Cairn, along OpenStreetMap roads; approximate"},"geometry":{"type":"LineString","coordinates":[[-71.5182,42.22978],[-71.51741,42.23054],[-71.51677,42.23145],[-71.51631,42.23182],[-71.51327,42.23306],[-71.51189,42.23349],[-71.50954,42.23452],[-71.50893,42.23483],[-71.50728,42.23586],[-71.50675,42.23613],[-71.50583,42.23635],[-71.50366,42.23658],[-71.5029,42.23658],[-71.50072,42.23636],[-71.49972,42.23639],[-71.49772,42.23673],[-71.49375,42.23767],[-71.49257,42.23813],[-71.48885,42.24006],[-71.47956,42.24436],[-71.47737,42.24519],[-71.47685,42.24544],[-71.47616,42.24595],[-71.47511,42.24691],[-71.47443,42.24813],[-71.47361,42.24899],[-71.47182,42.25139],[-71.46991,42.25288],[-71.46813,42.25465],[-71.46737,42.2552],[-71.46672,42.25548],[-71.46526,42.25574],[-71.46367,42.25613],[-71.45733,42.25806],[-71.45391,42.25879],[-71.45328,42.25905],[-71.45215,42.25965],[-71.45091,42.26046],[-71.45017,42.26108],[-71.44976,42.26159],[-71.44978,42.26165],[-71.44954,42.26218],[-71.44924,42.26268],[-71.44838,42.26342],[-71.4477,42.26429],[-71.44679,42.26517],[-71.4455,42.26767],[-71.44473,42.26969],[-71.44337,42.27139],[-71.44286,42.27175],[-71.44149,42.27233],[-71.43804,42.27411],[-71.43732,42.27425],[-71.43671,42.27424],[-71.43331,42.27359],[-71.43148,42.27305],[-71.42991,42.27222],[-71.42925,42.27216],[-71.42878,42.27231],[-71.42468,42.27441],[-71.42166,42.27536],[-71.41587,42.27699],[-71.41238,42.27776],[-71.40956,42.2783],[-71.3997,42.28054],[-71.39446,42.28163],[-71.38756,42.28213],[-71.38138,42.28248],[-71.37569,42.28258],[-71.36821,42.28378],[-71.36778,42.2838],[-71.367,42.28372],[-71.36353,42.28276],[-71.36128,42.28225],[-71.35959,42.28222],[-71.34705,42.28383],[-71.34038,42.28511],[-71.33748,42.28617],[-71.33455,42.28727],[-71.33157,42.28854],[-71.32273,42.29328],[-71.32114,42.29382],[-71.3183,42.29461],[-71.31592,42.29537],[-71.31389,42.29577],[-71.31211,42.296],[-71.3089,42.29616],[-71.30474,42.29622],[-71.29896,42.29591],[-71.29784,42.29597],[-71.29662,42.29609],[-71.2928,42.29664],[-71.29014,42.29755],[-71.28974,42.29776],[-71.28943,42.29802],[-71.28706,42.3014],[-71.28633,42.30228],[-71.28491,42.30373],[-71.28257,42.30549],[-71.27845,42.3084],[-71.27669,42.31009],[-71.27334,42.31353],[-71.26924,42.31619],[-71.26527,42.31891],[-71.26478,42.31933],[-71.26415,42.32017],[-71.26365,42.32117],[-71.26322,42.32229],[-71.26288,42.32291],[-71.26225,42.32374],[-71.26123,42.32465],[-71.26082,42.32493],[-71.26037,42.32509],[-71.25748,42.32541],[-71.25481,42.32628],[-71.25378,42.327],[-71.25314,42.32737],[-71.25038,42.3293],[-71.24989,42.32952],[-71.24862,42.32993],[-71.24716,42.33179],[-71.24658,42.33239],[-71.24395,42.33442],[-71.2425,42.33539],[-71.2422,42.33568],[-71.2416,42.33656],[-71.23963,42.33993],[-71.23924,42.34045],[-71.23862,42.34105],[-71.23707,42.33997],[-71.23631,42.33968],[-71.23555,42.33947],[-71.23425,42.33931],[-71.22991,42.33922],[-71.22911,42.33914],[-71.22834,42.33898],[-71.22696,42.33845],[-71.22462,42.33703],[-71.22364,42.33673],[-71.22248,42.33667],[-71.22125,42.33677],[-71.22051,42.33699],[-71.2195,42.33747],[-71.21898,42.33755],[-71.2183,42.33747],[-71.21664,42.33692],[-71.2159,42.33684],[-71.21532,42.33699],[-71.21359,42.3377],[-71.21272,42.33793],[-71.21167,42.33802],[-71.21011,42.33788],[-71.20932,42.33792],[-71.20864,42.33807],[-71.20759,42.33843],[-71.20691,42.33857],[-71.20689,42.3388],[-71.2069,42.33874],[-71.20586,42.33877],[-71.20478,42.33864],[-71.20316,42.33817],[-71.2024,42.33802],[-71.2018,42.33798],[-71.20084,42.33803],[-71.20079,42.33785],[-71.1992,42.33794],[-71.19819,42.33783],[-71.19757,42.3376],[-71.19675,42.33709],[-71.19567,42.33602],[-71.19515,42.33579],[-71.19456,42.33572],[-71.19242,42.33619],[-71.18829,42.33626],[-71.18654,42.33639],[-71.18468,42.33664],[-71.18299,42.33658],[-71.17933,42.33614],[-71.17858,42.33611],[-71.17856,42.33628],[-71.17777,42.33644],[-71.17629,42.33717],[-71.1756,42.33737],[-71.1746,42.33746],[-71.17307,42.33727],[-71.17234,42.33738],[-71.17213,42.33723],[-71.17153,42.33765],[-71.17054,42.33857],[-71.16972,42.33906],[-71.1684,42.33953],[-71.16613,42.33992],[-71.16614,42.34009],[-71.16604,42.3401],[-71.16601,42.33993],[-71.16401,42.34007],[-71.16045,42.33997],[-71.15869,42.33975],[-71.15734,42.33941],[-71.15626,42.33902],[-71.15448,42.33819],[-71.15396,42.33801],[-71.1535,42.33795],[-71.15322,42.33802],[-71.1534,42.33821],[-71.15226,42.33715],[-71.15134,42.33641],[-71.15089,42.33591],[-71.15028,42.33586],[-71.14635,42.33675],[-71.1396,42.33815],[-71.13448,42.33939],[-71.1338,42.33947],[-71.1308,42.33953],[-71.12869,42.33988],[-71.12767,42.34018],[-71.12571,42.34089],[-71.1223,42.34169],[-71.12122,42.34203],[-71.12129,42.34226],[-71.12135,42.34224],[-71.12119,42.34228],[-71.12116,42.34224],[-71.12024,42.34242],[-71.12016,42.3423],[-71.1067,42.34604],[-71.10513,42.34655],[-71.10519,42.34668],[-71.10358,42.34702],[-71.10333,42.34713],[-71.09716,42.34879],[-71.09509,42.34881],[-71.09509,42.34888],[-71.0952,42.34889],[-71.09509,42.3489],[-71.09509,42.34881],[-71.09039,42.34887],[-71.08971,42.349],[-71.08855,42.34909],[-71.08756,42.3493],[-71.08673,42.3494],[-71.08605,42.34958],[-71.08613,42.34975],[-71.08623,42.34973],[-71.08593,42.34913],[-71.08585,42.34915],[-71.08565,42.34875],[-71.08556,42.34878],[-71.08514,42.348],[-71.07862,42.34975]]}}]}