{"type":"FeatureCollection","features":[{"type":"Feature","properties":{"name":"Start"},"geometry":{"type":"Point","coordinates":[-71.5182,42.22978]}},{"type":"Feature","properties":{"name":"Mile 1 (approx.)"},"geometry":{"type":"Point","coordinates":[-71.50165,42.23645]}},{"type":"Feature","properties":{"name":"Mile 2 (approx.)"},"geometry":{"type":"Point","coordinates":[-71.48398,42.24232]}},{"type":"Feature","properties":{"name":"Mile 3 (approx.)"},"geometry":{"type":"Point","coordinates":[-71.47048,42.25244]}},{"type":"Feature","properties":{"name":"Mile 4 (approx.)"},"geometry":{"type":"Point","coordinates":[-71.45341,42.259]}},{"type":"Feature","properties":{"name":"Mile 5 (approx.)"},"geometry":{"type":"Point","coordinates":[-71.44347,42.27127]}},{"type":"Feature","properties":{"name":"Mile 6 (approx.)"},"geometry":{"type":"Point","coordinates":[-71.42618,42.27364]}},{"type":"Feature","properties":{"name":"Mile 7 (approx.)"},"geometry":{"type":"Point","coordinates":[-71.4077,42.27872]}},{"type":"Feature","properties":{"name":"Mile 8 (approx.)"},"geometry":{"type":"Point","coordinates":[-71.3885,42.28206]}},{"type":"Feature","properties":{"name":"Mile 9 (approx.)"},"geometry":{"type":"Point","coordinates":[-71.36889,42.28367]}},{"type":"Feature","properties":{"name":"Mile 10 (approx.)"},"geometry":{"type":"Point","coordinates":[-71.3496,42.2835]}},{"type":"Feature","properties":{"name":"Mile 11 (approx.)"},"geometry":{"type":"Point","coordinates":[-71.33128,42.2887]}},{"type":"Feature","properties":{"name":"Mile 12 (approx.)"},"geometry":{"type":"Point","coordinates":[-71.31412,42.29572]}},{"type":"Feature","properties":{"name":"Mile 13 (approx.)"},"geometry":{"type":"Point","coordinates":[-71.29443,42.29641]}},{"type":"Feature","properties":{"name":"Mile 14 (approx.)"},"geometry":{"type":"Point","coordinates":[-71.28116,42.30649]}},{"type":"Feature","properties":{"name":"Mile 15 (approx.)"},"geometry":{"type":"Point","coordinates":[-71.26778,42.31719]}},{"type":"Feature","properties":{"name":"Mile 16 (approx.)"},"geometry":{"type":"Point","coordinates":[-71.25435,42.3266]}},{"type":"Feature","properties":{"name":"Mile 17 (approx.)"},"geometry":{"type":"Point","coordinates":[-71.24122,42.33722]}},{"type":"Feature","properties":{"name":"Mile 18 (approx.)"},"geometry":{"type":"Point","coordinates":[-71.2259,42.33781]}},{"type":"Feature","properties":{"name":"Mile 19 (approx.)"},"geometry":{"type":"Point","coordinates":[-71.20749,42.33845]}},{"type":"Feature","properties":{"name":"Mile 20 (approx.)"},"geometry":{"type":"Point","coordinates":[-71.1897,42.33624]}},{"type":"Feature","properties":{"name":"Mile 21 (approx.)"},"geometry":{"type":"Point","coordinates":[-71.17115,42.338]}},{"type":"Feature","properties":{"name":"Mile 22 (approx.)"},"geometry":{"type":"Point","coordinates":[-71.15322,42.33802]}},{"type":"Feature","properties":{"name":"Mile 23 (approx.)"},"geometry":{"type":"Point","coordinates":[-71.13603,42.33902]}},{"type":"Feature","properties":{"name":"Mile 24 (approx.)"},"geometry":{"type":"Point","coordinates":[-71.11777,42.34296]}},{"type":"Feature","properties":{"name":"Mile 25 (approx.)"},"geometry":{"type":"Point","coordinates":[-71.09945,42.34817]}},{"type":"Feature","properties":{"name":"Mile 26 (approx.)"},"geometry":{"type":"Point","coordinates":[-71.0827,42.34866]}},{"type":"Feature","properties":{"name":"Finish"},"geometry":{"type":"Point","coordinates":[-71.07862,42.34975]}}]}