{"type":"FeatureCollection","features":[{"type":"Feature","properties":{"name":"Medical station 1"},"geometry":{"type":"Point","coordinates":[-104.94675,39.74636]}},{"type":"Feature","properties":{"name":"Medical station 2"},"geometry":{"type":"Point","coordinates":[-104.99738,39.74026]}},{"type":"Feature","properties":{"name":"Medical station 3"},"geometry":{"type":"Point","coordinates":[-105.00771,39.75436]}},{"type":"Feature","properties":{"name":"Medical station 4"},"geometry":{"type":"Point","coordinates":[-105.02169,39.7439]}},{"type":"Feature","properties":{"name":"Medical station 5"},"geometry":{"type":"Point","coordinates":[-105.04147,39.743]}},{"type":"Feature","properties":{"name":"Medical station 6"},"geometry":{"type":"Point","coordinates":[-105.0717,39.74003]}},{"type":"Feature","properties":{"name":"Medical station 7"},"geometry":{"type":"Point","coordinates":[-105.09344,39.74049]}},{"type":"Feature","properties":{"name":"Medical station 8"},"geometry":{"type":"Point","coordinates":[-104.97688,39.74341]}},{"type":"Feature","properties":{"name":"Medical station 9"},"geometry":{"type":"Point","coordinates":[-104.96267,39.74312]}},{"type":"Feature","properties":{"name":"Pain Relief Zone"},"geometry":{"type":"Point","coordinates":[-105.01928,39.74488]}},{"type":"Feature","properties":{"name":"Pain Relief Zone"},"geometry":{"type":"Point","coordinates":[-104.99853,39.74676]}},{"type":"Feature","properties":{"name":"Pain Relief Zone"},"geometry":{"type":"Point","coordinates":[-105.07231,39.74002]}}]}