{"type":"FeatureCollection","features":[{"type":"Feature","properties":{"name":"Start"},"geometry":{"type":"Point","coordinates":[-104.94829,39.74777]}},{"type":"Feature","properties":{"name":"Mile 1"},"geometry":{"type":"Point","coordinates":[-104.95627,39.74461]}},{"type":"Feature","properties":{"name":"Mile 2"},"geometry":{"type":"Point","coordinates":[-104.96893,39.74005]}},{"type":"Feature","properties":{"name":"Mile 3"},"geometry":{"type":"Point","coordinates":[-104.98807,39.74026]}},{"type":"Feature","properties":{"name":"Mile 4"},"geometry":{"type":"Point","coordinates":[-105.00034,39.74579]}},{"type":"Feature","properties":{"name":"Mile 5"},"geometry":{"type":"Point","coordinates":[-105.01099,39.7522]}},{"type":"Feature","properties":{"name":"Mile 6"},"geometry":{"type":"Point","coordinates":[-105.019,39.74518]}},{"type":"Feature","properties":{"name":"Mile 7"},"geometry":{"type":"Point","coordinates":[-105.02902,39.74041]}},{"type":"Feature","properties":{"name":"Mile 8"},"geometry":{"type":"Point","coordinates":[-105.04264,39.74423]}},{"type":"Feature","properties":{"name":"Mile 9"},"geometry":{"type":"Point","coordinates":[-105.04415,39.75093]}},{"type":"Feature","properties":{"name":"Mile 10"},"geometry":{"type":"Point","coordinates":[-105.05149,39.7456]}},{"type":"Feature","properties":{"name":"Mile 11"},"geometry":{"type":"Point","coordinates":[-105.04384,39.74038]}},{"type":"Feature","properties":{"name":"Mile 12"},"geometry":{"type":"Point","coordinates":[-105.06248,39.7404]}},{"type":"Feature","properties":{"name":"Mile 13"},"geometry":{"type":"Point","coordinates":[-105.06751,39.74349]}},{"type":"Feature","properties":{"name":"Mile 14"},"geometry":{"type":"Point","coordinates":[-105.0795,39.74755]}},{"type":"Feature","properties":{"name":"Mile 15"},"geometry":{"type":"Point","coordinates":[-105.09612,39.74561]}},{"type":"Feature","properties":{"name":"Mile 16"},"geometry":{"type":"Point","coordinates":[-105.09785,39.74031]}},{"type":"Feature","properties":{"name":"Mile 17"},"geometry":{"type":"Point","coordinates":[-105.07946,39.74038]}},{"type":"Feature","properties":{"name":"Mile 18"},"geometry":{"type":"Point","coordinates":[-105.06047,39.74042]}},{"type":"Feature","properties":{"name":"Mile 19"},"geometry":{"type":"Point","coordinates":[-105.04193,39.74038]}},{"type":"Feature","properties":{"name":"Mile 20"},"geometry":{"type":"Point","coordinates":[-105.02346,39.74126]}},{"type":"Feature","properties":{"name":"Mile 21"},"geometry":{"type":"Point","coordinates":[-105.01522,39.74658]}},{"type":"Feature","properties":{"name":"Mile 22"},"geometry":{"type":"Point","coordinates":[-105.00705,39.753]}},{"type":"Feature","properties":{"name":"Mile 23"},"geometry":{"type":"Point","coordinates":[-104.99619,39.74884]}},{"type":"Feature","properties":{"name":"Mile 24"},"geometry":{"type":"Point","coordinates":[-104.98012,39.74327]}},{"type":"Feature","properties":{"name":"Mile 25"},"geometry":{"type":"Point","coordinates":[-104.96225,39.74399]}},{"type":"Feature","properties":{"name":"Mile 26"},"geometry":{"type":"Point","coordinates":[-104.95116,39.74761]}},{"type":"Feature","properties":{"name":"Finish"},"geometry":{"type":"Point","coordinates":[-104.94724,39.74683]}}]}