{"type":"FeatureCollection","features":[{"type":"Feature","properties":{"name":"Water station 2"},"geometry":{"type":"Point","coordinates":[-105.00034,39.74686]}},{"type":"Feature","properties":{"name":"Water station 5"},"geometry":{"type":"Point","coordinates":[-105.06717,39.74039]}},{"type":"Feature","properties":{"name":"Water station 7"},"geometry":{"type":"Point","coordinates":[-104.97716,39.74327]}},{"type":"Feature","properties":{"name":"Water station 1"},"geometry":{"type":"Point","coordinates":[-104.97115,39.74004]}},{"type":"Feature","properties":{"name":"Water station 3"},"geometry":{"type":"Point","coordinates":[-105.02263,39.74349]}},{"type":"Feature","properties":{"name":"Water station 4"},"geometry":{"type":"Point","coordinates":[-105.04149,39.74223]}},{"type":"Feature","properties":{"name":"Water station 6"},"geometry":{"type":"Point","coordinates":[-105.08101,39.74743]}},{"type":"Feature","properties":{"name":"Water station 7"},"geometry":{"type":"Point","coordinates":[-105.0928,39.74041]}},{"type":"Feature","properties":{"name":"Water station 8"},"geometry":{"type":"Point","coordinates":[-104.96266,39.74327]}}]}