{"type":"FeatureCollection","features":[{"type":"Feature","properties":{"name":"Denver Colfax Marathon course (2026)","miles":26.7,"race":"Denver Colfax Marathon","year":2026},"geometry":{"type":"LineString","coordinates":[[-104.94829,39.74777],[-104.94894,39.74769],[-104.95025,39.74782],[-104.95093,39.74772],[-104.95148,39.74748],[-104.95169,39.74745],[-104.95276,39.74745],[-104.95316,39.7475],[-104.95479,39.74795],[-104.95493,39.7481],[-104.95498,39.74825],[-104.95496,39.74888],[-104.95505,39.7491],[-104.95526,39.74933],[-104.95558,39.74938],[-104.95599,39.74938],[-104.95626,39.74931],[-104.95648,39.74917],[-104.95663,39.74904],[-104.95718,39.74825],[-104.95748,39.74794],[-104.95739,39.7477],[-104.95748,39.74755],[-104.95745,39.74749],[-104.95611,39.74647],[-104.95579,39.74632],[-104.95529,39.74614],[-104.95485,39.74609],[-104.95471,39.74624],[-104.95442,39.74626],[-104.95425,39.74613],[-104.95425,39.74595],[-104.95448,39.7458],[-104.95466,39.74582],[-104.95595,39.74471],[-104.95623,39.74461],[-104.95661,39.7446],[-104.95653,39.74468],[-104.95649,39.74482],[-104.95654,39.74494],[-104.95668,39.74505],[-104.95698,39.74507],[-104.95717,39.74494],[-104.95721,39.74481],[-104.95716,39.74467],[-104.95702,39.74457],[-104.95697,39.74382],[-104.95698,39.74078],[-104.95724,39.74066],[-104.95733,39.74055],[-104.95742,39.7402],[-104.95838,39.74018],[-104.95978,39.74],[-104.96225,39.74],[-104.96226,39.74007],[-104.96225,39.74],[-104.96785,39.74002],[-104.96793,39.74005],[-104.97725,39.74002],[-104.98537,39.74006],[-104.9855,39.74011],[-104.98613,39.74014],[-104.98788,39.74017],[-104.98867,39.74061],[-104.98888,39.74064],[-104.98933,39.74054],[-104.98984,39.74017],[-104.99025,39.74012],[-104.99743,39.74016],[-104.99755,39.74038],[-104.99764,39.74069],[-104.99803,39.74068],[-104.9982,39.74055],[-104.99847,39.74044],[-104.999,39.74119],[-104.99959,39.74232],[-105.00018,39.7436],[-105.00033,39.74542],[-105.00031,39.74646],[-105.0011,39.74819],[-105.00128,39.74845],[-105.00157,39.7488],[-105.00755,39.75336],[-105.00777,39.75364],[-105.00787,39.75395],[-105.00793,39.75416],[-105.00787,39.75417],[-105.00792,39.75434],[-105.00787,39.75437],[-105.0077,39.75425],[-105.00786,39.75411],[-105.0082,39.75404],[-105.0083,39.75425],[-105.0084,39.75427],[-105.00889,39.75389],[-105.00899,39.75391],[-105.00948,39.75356],[-105.0096,39.75344],[-105.00973,39.75317],[-105.01053,39.7525],[-105.01177,39.75163],[-105.0121,39.75128],[-105.01341,39.75041],[-105.01382,39.75004],[-105.01435,39.74984],[-105.01455,39.74966],[-105.01479,39.74917],[-105.01498,39.74897],[-105.01502,39.74803],[-105.01508,39.74761],[-105.01524,39.74704],[-105.01526,39.74676],[-105.01519,39.74642],[-105.01533,39.7455],[-105.01535,39.74466],[-105.01573,39.74378],[-105.01594,39.74351],[-105.01611,39.74307],[-105.01614,39.74284],[-105.0177,39.74325],[-105.01795,39.74343],[-105.01816,39.74375],[-105.01826,39.74428],[-105.01852,39.74478],[-105.0187,39.74498],[-105.01908,39.74522],[-105.01947,39.74537],[-105.01987,39.74447],[-105.0204,39.74446],[-105.02048,39.74436],[-105.02053,39.74406],[-105.0205,39.74359],[-105.02039,39.74336],[-105.02064,39.74279],[-105.02053,39.74245],[-105.02114,39.74267],[-105.02152,39.74295],[-105.02174,39.74321],[-105.02186,39.74346],[-105.02195,39.74385],[-105.02364,39.74374],[-105.02363,39.74165],[-105.02344,39.74131],[-105.02344,39.74124],[-105.02362,39.74111],[-105.02361,39.74055],[-105.02687,39.74041],[-105.0315,39.7404],[-105.03188,39.74035],[-105.03308,39.74035],[-105.03308,39.74039],[-105.03308,39.74035],[-105.04167,39.74036],[-105.04167,39.74397],[-105.04172,39.74397],[-105.04175,39.74411],[-105.04187,39.74419],[-105.04265,39.74421],[-105.04269,39.74425],[-105.04245,39.74441],[-105.04229,39.74458],[-105.04147,39.7446],[-105.04071,39.74456],[-105.03938,39.74432],[-105.03896,39.7443],[-105.03849,39.74409],[-105.03785,39.74407],[-105.03722,39.74417],[-105.03693,39.7443],[-105.03679,39.74443],[-105.03668,39.74463],[-105.03668,39.74486],[-105.03686,39.74534],[-105.03713,39.74569],[-105.03802,39.74636],[-105.03887,39.74684],[-105.03977,39.74718],[-105.04043,39.74734],[-105.04096,39.74757],[-105.04217,39.74778],[-105.04249,39.74791],[-105.0429,39.74794],[-105.04317,39.74805],[-105.04325,39.74815],[-105.04327,39.74829],[-105.04305,39.74874],[-105.04307,39.74916],[-105.04343,39.74982],[-105.04402,39.75068],[-105.04456,39.75169],[-105.04471,39.75186],[-105.04494,39.75226],[-105.04512,39.75244],[-105.04561,39.75273],[-105.04611,39.75283],[-105.0468,39.75284],[-105.04733,39.75272],[-105.04761,39.75254],[-105.04773,39.75234],[-105.04823,39.75236],[-105.04841,39.75232],[-105.04865,39.75209],[-105.04906,39.7519],[-105.04969,39.75186],[-105.05073,39.75208],[-105.05106,39.75224],[-105.05141,39.75228],[-105.05196,39.75217],[-105.05229,39.752],[-105.0526,39.75175],[-105.05271,39.75135],[-105.05266,39.75101],[-105.05267,39.75061],[-105.05287,39.75012],[-105.05286,39.74986],[-105.05295,39.74933],[-105.05281,39.74817],[-105.05284,39.74765],[-105.05271,39.74721],[-105.0525,39.74683],[-105.0525,39.74638],[-105.05174,39.74585],[-105.05081,39.74496],[-105.05013,39.7446],[-105.04972,39.74452],[-105.04861,39.74476],[-105.0483,39.74477],[-105.04778,39.74506],[-105.047,39.74532],[-105.04651,39.74564],[-105.04596,39.7458],[-105.04571,39.7458],[-105.04546,39.74572],[-105.04515,39.74552],[-105.04535,39.74522],[-105.04522,39.7447],[-105.04531,39.74462],[-105.04528,39.74438],[-105.04517,39.74417],[-105.04517,39.744],[-105.04176,39.744],[-105.04171,39.74387],[-105.04171,39.74036],[-105.04927,39.74036],[-105.04927,39.74041],[-105.04927,39.74036],[-105.05126,39.74036],[-105.05136,39.7404],[-105.05382,39.74042],[-105.07198,39.74038],[-105.07204,39.74328],[-105.07105,39.74332],[-105.07086,39.74342],[-105.07051,39.74372],[-105.06961,39.74372],[-105.06949,39.74343],[-105.06959,39.74333],[-105.0695,39.74323],[-105.06932,39.74324],[-105.06902,39.74307],[-105.06847,39.74294],[-105.06747,39.74257],[-105.06742,39.74268],[-105.06741,39.74291],[-105.0675,39.74334],[-105.06752,39.74386],[-105.06756,39.74403],[-105.06765,39.74416],[-105.06791,39.74435],[-105.06825,39.74441],[-105.06851,39.74435],[-105.06867,39.74416],[-105.06869,39.74378],[-105.06997,39.74378],[-105.07056,39.74372],[-105.07101,39.74343],[-105.07118,39.74338],[-105.07204,39.74337],[-105.07204,39.74756],[-105.09612,39.7475],[-105.09611,39.74611],[-105.09606,39.74533],[-105.09643,39.74386],[-105.09739,39.74475],[-105.09722,39.74507],[-105.0972,39.74629],[-105.09894,39.74687],[-105.09959,39.74677],[-105.09962,39.74652],[-105.09959,39.74634],[-105.09947,39.74615],[-105.09894,39.74574],[-105.09861,39.74509],[-105.09859,39.74493],[-105.09902,39.7441],[-105.09916,39.7436],[-105.09931,39.74326],[-105.09933,39.74291],[-105.0986,39.74286],[-105.09829,39.7426],[-105.09823,39.74222],[-105.09916,39.74147],[-105.09934,39.74139],[-105.09933,39.74028],[-105.0817,39.74038],[-105.0721,39.74035],[-105.05445,39.74042],[-105.05201,39.74041],[-105.05136,39.7404],[-105.05126,39.74036],[-105.03188,39.74035],[-105.0315,39.7404],[-105.02687,39.74041],[-105.02364,39.74055],[-105.02359,39.74074],[-105.02362,39.74104],[-105.02344,39.74124],[-105.02359,39.74158],[-105.02364,39.74218],[-105.0236,39.7437],[-105.02199,39.74382],[-105.02183,39.74338],[-105.02155,39.74293],[-105.02127,39.74272],[-105.02088,39.74252],[-105.02039,39.74239],[-105.01964,39.74243],[-105.0196,39.74271],[-105.01982,39.74338],[-105.01973,39.74346],[-105.01966,39.74365],[-105.01967,39.74411],[-105.01972,39.74435],[-105.01982,39.74448],[-105.01947,39.74537],[-105.01903,39.7452],[-105.0187,39.74497],[-105.01852,39.74478],[-105.01826,39.74428],[-105.01816,39.74375],[-105.01791,39.74339],[-105.0177,39.74325],[-105.01614,39.74284],[-105.01611,39.74307],[-105.01594,39.74351],[-105.01573,39.74378],[-105.01535,39.74466],[-105.01533,39.7455],[-105.01519,39.74642],[-105.01526,39.74676],[-105.01524,39.74704],[-105.01502,39.74794],[-105.01498,39.74897],[-105.01473,39.74927],[-105.01456,39.74964],[-105.01435,39.74984],[-105.01382,39.75004],[-105.01331,39.75048],[-105.0121,39.75128],[-105.01177,39.75163],[-105.01053,39.7525],[-105.00973,39.75317],[-105.0096,39.75344],[-105.00948,39.75356],[-105.00899,39.75391],[-105.00889,39.75389],[-105.0084,39.75427],[-105.0083,39.75425],[-105.0082,39.75404],[-105.00786,39.75411],[-105.0077,39.75425],[-105.0079,39.75437],[-105.00787,39.75417],[-105.00793,39.75416],[-105.00779,39.75368],[-105.00755,39.75336],[-105.00157,39.7488],[-105.00112,39.74822],[-105.00038,39.74668],[-105.0003,39.74641],[-105.00033,39.74625],[-105.00012,39.74641],[-105.00022,39.74662],[-105.00019,39.74679],[-105.00026,39.74694],[-105.00023,39.74703],[-104.99981,39.74734],[-104.99896,39.74668],[-104.99533,39.74947],[-104.98726,39.74329],[-104.96225,39.74321],[-104.96224,39.74822],[-104.9589,39.74819],[-104.95854,39.74811],[-104.95789,39.74788],[-104.95764,39.74795],[-104.9575,39.74791],[-104.95703,39.74843],[-104.95663,39.74904],[-104.95626,39.74931],[-104.95599,39.74938],[-104.95558,39.74938],[-104.95526,39.74933],[-104.95501,39.74903],[-104.95496,39.74888],[-104.95498,39.74825],[-104.95493,39.7481],[-104.95479,39.74795],[-104.95386,39.74767],[-104.95282,39.74745],[-104.95169,39.74745],[-104.95148,39.74748],[-104.95093,39.74772],[-104.95025,39.74782],[-104.94926,39.74775],[-104.94894,39.74769],[-104.94842,39.74748],[-104.94724,39.74683]]}}]}