{"type":"FeatureCollection","features":[{"type":"Feature","properties":{"name":"Honolulu Marathon course","miles":26.3,"race":"Honolulu Marathon","year":2025,"traced_by":"Cairn, along OpenStreetMap roads from the organizer's 2025 traffic advisory; approximate"},"geometry":{"type":"LineString","coordinates":[[-157.85069,21.29193],[-157.85204,21.29212],[-157.85273,21.29236],[-157.85618,21.29439],[-157.85778,21.29502],[-157.86039,21.29623],[-157.86087,21.29665],[-157.86242,21.29831],[-157.86282,21.29885],[-157.86296,21.29917],[-157.86313,21.301],[-157.86326,21.30099],[-157.86348,21.30316],[-157.86341,21.3037],[-157.8629,21.30486],[-157.86288,21.30541],[-157.86305,21.30584],[-157.86437,21.30796],[-157.86443,21.30826],[-157.86434,21.30942],[-157.86441,21.3099],[-157.86293,21.31055],[-157.86209,21.30916],[-157.85937,21.30589],[-157.8581,21.30507],[-157.8557,21.30374],[-157.85443,21.30121],[-157.85207,21.29813],[-157.85122,21.2972],[-157.85079,21.29685],[-157.85021,21.29652],[-157.84626,21.29478],[-157.84628,21.29461],[-157.84775,21.29096],[-157.84556,21.29011],[-157.84205,21.28922],[-157.84178,21.28926],[-157.84117,21.28912],[-157.84052,21.28867],[-157.8402,21.2883],[-157.84015,21.2881],[-157.83906,21.28828],[-157.83505,21.28913],[-157.83468,21.28844],[-157.83458,21.28843],[-157.83428,21.28782],[-157.83367,21.28694],[-157.83301,21.28567],[-157.83198,21.28403],[-157.82974,21.28002],[-157.82922,21.27937],[-157.82608,21.27654],[-157.8247,21.27513],[-157.82399,21.2739],[-157.82241,21.27085],[-157.82185,21.27028],[-157.82126,21.2698],[-157.82067,21.26956],[-157.81585,21.26913],[-157.81609,21.26782],[-157.81626,21.26727],[-157.81711,21.26592],[-157.81754,21.26495],[-157.81846,21.26379],[-157.81857,21.26347],[-157.81824,21.26123],[-157.81818,21.26017],[-157.81725,21.25833],[-157.81693,21.25805],[-157.81612,21.25772],[-157.81512,21.25698],[-157.81453,21.25663],[-157.81347,21.25649],[-157.81276,21.25631],[-157.81158,21.25638],[-157.80736,21.2557],[-157.80594,21.25578],[-157.80114,21.25769],[-157.79964,21.25862],[-157.79814,21.25897],[-157.79704,21.26019],[-157.79686,21.26054],[-157.79644,21.26189],[-157.79639,21.26259],[-157.79656,21.2633],[-157.79759,21.26538],[-157.79948,21.2673],[-157.79911,21.26777],[-157.7951,21.27461],[-157.79149,21.27278],[-157.79067,21.27419],[-157.79054,21.27425],[-157.78958,21.27403],[-157.78874,21.27397],[-157.78524,21.27473],[-157.78504,21.27555],[-157.78471,21.27778],[-157.78449,21.27777],[-157.78447,21.27793],[-157.78434,21.27792],[-157.78438,21.27802],[-157.7842,21.27807],[-157.77975,21.27778],[-157.77972,21.27792],[-157.77948,21.27789],[-157.77919,21.27772],[-157.77339,21.27707],[-157.76683,21.27588],[-157.76635,21.27584],[-157.76554,21.27588],[-157.76002,21.27662],[-157.75864,21.27685],[-157.75421,21.27792],[-157.75111,21.27825],[-157.74948,21.27855],[-157.74728,21.27908],[-157.74331,21.28023],[-157.7424,21.2804],[-157.73919,21.28074],[-157.73322,21.28235],[-157.73158,21.28252],[-157.73101,21.28265],[-157.73048,21.28284],[-157.72816,21.28401],[-157.72612,21.28516],[-157.7226,21.28605],[-157.7215,21.28614],[-157.72019,21.28598],[-157.71918,21.28559],[-157.7176,21.28456],[-157.7169,21.2854],[-157.7156,21.28661],[-157.71396,21.28851],[-157.71405,21.28858],[-157.71397,21.28867],[-157.71405,21.28858],[-157.71396,21.28851],[-157.71351,21.28899],[-157.71226,21.28984],[-157.71204,21.29019],[-157.71094,21.29309],[-157.71048,21.29356],[-157.71015,21.29372],[-157.70978,21.2938],[-157.70911,21.29382],[-157.70863,21.29372],[-157.7081,21.29342],[-157.70776,21.293],[-157.70759,21.29252],[-157.7073,21.28978],[-157.70572,21.2867],[-157.70901,21.28528],[-157.7117,21.28422],[-157.71277,21.28396],[-157.7146,21.28375],[-157.71492,21.28355],[-157.71531,21.28302],[-157.71856,21.28521],[-157.71954,21.28576],[-157.72019,21.28598],[-157.72068,21.28607],[-157.7218,21.28614],[-157.7226,21.28605],[-157.72612,21.28516],[-157.72816,21.28401],[-157.73048,21.28284],[-157.73101,21.28265],[-157.73158,21.28252],[-157.73322,21.28235],[-157.73919,21.28074],[-157.7424,21.2804],[-157.74331,21.28023],[-157.74728,21.27908],[-157.74948,21.27855],[-157.75111,21.27825],[-157.75421,21.27792],[-157.75864,21.27685],[-157.76002,21.27662],[-157.76554,21.27588],[-157.76635,21.27584],[-157.76683,21.27588],[-157.77339,21.27707],[-157.77919,21.27772],[-157.77948,21.27789],[-157.77972,21.27792],[-157.77975,21.27778],[-157.78385,21.27808],[-157.78396,21.27797],[-157.78392,21.27781],[-157.78138,21.27321],[-157.77876,21.26964],[-157.78151,21.26599],[-157.78577,21.26294],[-157.79021,21.26063],[-157.79065,21.26048],[-157.79273,21.26002],[-157.7995,21.25867],[-157.79994,21.25847],[-157.80114,21.25769],[-157.80594,21.25578],[-157.8075,21.25571],[-157.81158,21.25638],[-157.81276,21.25631],[-157.8137,21.25653],[-157.81444,21.25661],[-157.81485,21.25679],[-157.81619,21.25776],[-157.817,21.2581],[-157.81733,21.25847],[-157.81818,21.26017],[-157.81823,21.26051],[-157.8197,21.26153],[-157.82009,21.2621],[-157.82035,21.2628],[-157.82125,21.26645]]}}]}