{"type":"FeatureCollection","features":[{"type":"Feature","properties":{"name":"Start"},"geometry":{"type":"Point","coordinates":[-157.85069,21.29193]}},{"type":"Feature","properties":{"name":"Mile 1 (approx.)"},"geometry":{"type":"Point","coordinates":[-157.86302,21.29978]}},{"type":"Feature","properties":{"name":"Mile 2 (approx.)"},"geometry":{"type":"Point","coordinates":[-157.86165,21.30864]}},{"type":"Feature","properties":{"name":"Mile 3 (approx.)"},"geometry":{"type":"Point","coordinates":[-157.85177,21.29781]}},{"type":"Feature","properties":{"name":"Mile 4 (approx.)"},"geometry":{"type":"Point","coordinates":[-157.84327,21.28953]}},{"type":"Feature","properties":{"name":"Mile 5 (approx.)"},"geometry":{"type":"Point","coordinates":[-157.83183,21.28376]}},{"type":"Feature","properties":{"name":"Mile 6 (approx.)"},"geometry":{"type":"Point","coordinates":[-157.823,21.27199]}},{"type":"Feature","properties":{"name":"Mile 7 (approx.)"},"geometry":{"type":"Point","coordinates":[-157.81852,21.26313]}},{"type":"Feature","properties":{"name":"Mile 8 (approx.)"},"geometry":{"type":"Point","coordinates":[-157.80773,21.25576]}},{"type":"Feature","properties":{"name":"Mile 9 (approx.)"},"geometry":{"type":"Point","coordinates":[-157.79658,21.26334]}},{"type":"Feature","properties":{"name":"Mile 10 (approx.)"},"geometry":{"type":"Point","coordinates":[-157.79388,21.27399]}},{"type":"Feature","properties":{"name":"Mile 11 (approx.)"},"geometry":{"type":"Point","coordinates":[-157.78278,21.27798]}},{"type":"Feature","properties":{"name":"Mile 12 (approx.)"},"geometry":{"type":"Point","coordinates":[-157.76753,21.27601]}},{"type":"Feature","properties":{"name":"Mile 13 (approx.)"},"geometry":{"type":"Point","coordinates":[-157.75221,21.27813]}},{"type":"Feature","properties":{"name":"Mile 14 (approx.)"},"geometry":{"type":"Point","coordinates":[-157.73705,21.28132]}},{"type":"Feature","properties":{"name":"Mile 15 (approx.)"},"geometry":{"type":"Point","coordinates":[-157.72248,21.28606]}},{"type":"Feature","properties":{"name":"Mile 16 (approx.)"},"geometry":{"type":"Point","coordinates":[-157.71154,21.29152]}},{"type":"Feature","properties":{"name":"Mile 17 (approx.)"},"geometry":{"type":"Point","coordinates":[-157.70831,21.28558]}},{"type":"Feature","properties":{"name":"Mile 18 (approx.)"},"geometry":{"type":"Point","coordinates":[-157.72219,21.2861]}},{"type":"Feature","properties":{"name":"Mile 19 (approx.)"},"geometry":{"type":"Point","coordinates":[-157.73677,21.28139]}},{"type":"Feature","properties":{"name":"Mile 20 (approx.)"},"geometry":{"type":"Point","coordinates":[-157.75192,21.27816]}},{"type":"Feature","properties":{"name":"Mile 21 (approx.)"},"geometry":{"type":"Point","coordinates":[-157.76725,21.27596]}},{"type":"Feature","properties":{"name":"Mile 22 (approx.)"},"geometry":{"type":"Point","coordinates":[-157.78249,21.27798]}},{"type":"Feature","properties":{"name":"Mile 23 (approx.)"},"geometry":{"type":"Point","coordinates":[-157.78088,21.26683]}},{"type":"Feature","properties":{"name":"Mile 24 (approx.)"},"geometry":{"type":"Point","coordinates":[-157.79411,21.25974]}},{"type":"Feature","properties":{"name":"Mile 25 (approx.)"},"geometry":{"type":"Point","coordinates":[-157.80882,21.25593]}},{"type":"Feature","properties":{"name":"Mile 26 (approx.)"},"geometry":{"type":"Point","coordinates":[-157.82048,21.26334]}},{"type":"Feature","properties":{"name":"Finish"},"geometry":{"type":"Point","coordinates":[-157.82125,21.26645]}}]}