{"type":"FeatureCollection","features":[{"type":"Feature","properties":{"name":"Start"},"geometry":{"type":"Point","coordinates":[-95.35987,29.76171]}},{"type":"Feature","properties":{"name":"Mile 1 (approx.)"},"geometry":{"type":"Point","coordinates":[-95.37335,29.7674]}},{"type":"Feature","properties":{"name":"Mile 2 (approx.)"},"geometry":{"type":"Point","coordinates":[-95.39017,29.7688]}},{"type":"Feature","properties":{"name":"Mile 3 (approx.)"},"geometry":{"type":"Point","coordinates":[-95.39841,29.76172]}},{"type":"Feature","properties":{"name":"Mile 4 (approx.)"},"geometry":{"type":"Point","coordinates":[-95.40514,29.75311]}},{"type":"Feature","properties":{"name":"Mile 5 (approx.)"},"geometry":{"type":"Point","coordinates":[-95.41894,29.74912]}},{"type":"Feature","properties":{"name":"Mile 6 (approx.)"},"geometry":{"type":"Point","coordinates":[-95.41876,29.73452]}},{"type":"Feature","properties":{"name":"Mile 7 (approx.)"},"geometry":{"type":"Point","coordinates":[-95.41216,29.72553]}},{"type":"Feature","properties":{"name":"Mile 8 (approx.)"},"geometry":{"type":"Point","coordinates":[-95.3987,29.72261]}},{"type":"Feature","properties":{"name":"Mile 9 (approx.)"},"geometry":{"type":"Point","coordinates":[-95.39987,29.71272]}},{"type":"Feature","properties":{"name":"Mile 10 (approx.)"},"geometry":{"type":"Point","coordinates":[-95.4152,29.71507]}},{"type":"Feature","properties":{"name":"Mile 11 (approx.)"},"geometry":{"type":"Point","coordinates":[-95.43209,29.71493]}},{"type":"Feature","properties":{"name":"Mile 12 (approx.)"},"geometry":{"type":"Point","coordinates":[-95.4413,29.72128]}},{"type":"Feature","properties":{"name":"Mile 13 (approx.)"},"geometry":{"type":"Point","coordinates":[-95.45089,29.72698]}},{"type":"Feature","properties":{"name":"Mile 14 (approx.)"},"geometry":{"type":"Point","coordinates":[-95.46048,29.73284]}},{"type":"Feature","properties":{"name":"Mile 15 (approx.)"},"geometry":{"type":"Point","coordinates":[-95.46131,29.74738]}},{"type":"Feature","properties":{"name":"Mile 16 (approx.)"},"geometry":{"type":"Point","coordinates":[-95.47114,29.75542]}},{"type":"Feature","properties":{"name":"Mile 17 (approx.)"},"geometry":{"type":"Point","coordinates":[-95.47824,29.76768]}},{"type":"Feature","properties":{"name":"Mile 18 (approx.)"},"geometry":{"type":"Point","coordinates":[-95.48119,29.77853]}},{"type":"Feature","properties":{"name":"Mile 19 (approx.)"},"geometry":{"type":"Point","coordinates":[-95.46455,29.77874]}},{"type":"Feature","properties":{"name":"Mile 20 (approx.)"},"geometry":{"type":"Point","coordinates":[-95.45208,29.77229]}},{"type":"Feature","properties":{"name":"Mile 21 (approx.)"},"geometry":{"type":"Point","coordinates":[-95.439,29.76504]}},{"type":"Feature","properties":{"name":"Mile 22 (approx.)"},"geometry":{"type":"Point","coordinates":[-95.42311,29.76175]}},{"type":"Feature","properties":{"name":"Mile 23 (approx.)"},"geometry":{"type":"Point","coordinates":[-95.40858,29.76016]}},{"type":"Feature","properties":{"name":"Mile 24 (approx.)"},"geometry":{"type":"Point","coordinates":[-95.39363,29.76128]}},{"type":"Feature","properties":{"name":"Mile 25 (approx.)"},"geometry":{"type":"Point","coordinates":[-95.37746,29.7601]}},{"type":"Feature","properties":{"name":"Mile 26 (approx.)"},"geometry":{"type":"Point","coordinates":[-95.36315,29.75478]}},{"type":"Feature","properties":{"name":"Finish"},"geometry":{"type":"Point","coordinates":[-95.36063,29.75273]}}]}