{"type":"FeatureCollection","features":[{"type":"Feature","properties":{"name":"Houston Marathon course","miles":26.6,"race":"Chevron Houston Marathon","year":2026,"traced_by":"Cairn, along OpenStreetMap roads from the organizer's 2026 course map; approximate"},"geometry":{"type":"LineString","coordinates":[[-95.35987,29.76171],[-95.3641,29.76428],[-95.36319,29.76464],[-95.36798,29.76572],[-95.36914,29.76614],[-95.37067,29.76698],[-95.37221,29.76728],[-95.37944,29.76803],[-95.3818,29.76824],[-95.38475,29.76837],[-95.38761,29.76869],[-95.39122,29.76885],[-95.39723,29.7695],[-95.39733,29.7696],[-95.39722,29.76872],[-95.3972,29.76757],[-95.3973,29.76692],[-95.39764,29.76615],[-95.39828,29.76536],[-95.39881,29.76443],[-95.399,29.76398],[-95.39907,29.76359],[-95.39898,29.76289],[-95.39832,29.76153],[-95.39827,29.76128],[-95.39804,29.75323],[-95.41073,29.75301],[-95.41228,29.75283],[-95.415,29.75274],[-95.41683,29.75247],[-95.4184,29.75214],[-95.41869,29.75093],[-95.41875,29.75088],[-95.41895,29.74963],[-95.41889,29.74712],[-95.41883,29.74712],[-95.41878,29.74257],[-95.41886,29.74249],[-95.41872,29.7311],[-95.41866,29.731],[-95.41858,29.72544],[-95.39944,29.72571],[-95.39954,29.72571],[-95.39951,29.72327],[-95.39956,29.72319],[-95.39934,29.72285],[-95.39906,29.72272],[-95.39875,29.72267],[-95.39868,29.72258],[-95.39823,29.72274],[-95.3982,29.7227],[-95.39711,29.72269],[-95.39365,29.72061],[-95.40089,29.71142],[-95.40208,29.71191],[-95.40654,29.71339],[-95.41131,29.71491],[-95.41223,29.7151],[-95.41822,29.71504],[-95.41923,29.71508],[-95.43578,29.71489],[-95.43738,29.71481],[-95.43812,29.71456],[-95.44116,29.71453],[-95.44128,29.7211],[-95.44138,29.72227],[-95.44148,29.72774],[-95.45167,29.72692],[-95.45138,29.72795],[-95.4514,29.73057],[-95.45857,29.73035],[-95.45888,29.73044],[-95.45918,29.73072],[-95.45929,29.73116],[-95.45929,29.73185],[-95.46075,29.73186],[-95.46049,29.73278],[-95.4604,29.73342],[-95.46044,29.73499],[-95.46059,29.737],[-95.46054,29.73903],[-95.46077,29.73921],[-95.46081,29.74017],[-95.46117,29.74139],[-95.46137,29.7502],[-95.4642,29.75016],[-95.46435,29.75023],[-95.4659,29.75025],[-95.46609,29.75031],[-95.4684,29.75026],[-95.46849,29.75069],[-95.46894,29.75137],[-95.4693,29.75242],[-95.4698,29.75344],[-95.47132,29.75569],[-95.47245,29.75698],[-95.47533,29.75946],[-95.4761,29.76035],[-95.47669,29.76119],[-95.47701,29.76133],[-95.4775,29.76137],[-95.47758,29.7622],[-95.47792,29.76312],[-95.47801,29.76368],[-95.47797,29.7639],[-95.47817,29.76508],[-95.47827,29.76862],[-95.47817,29.76943],[-95.47817,29.77081],[-95.47833,29.77146],[-95.48013,29.77394],[-95.48069,29.7746],[-95.48169,29.77546],[-95.48366,29.77685],[-95.48419,29.77748],[-95.48424,29.77748],[-95.48348,29.77762],[-95.48178,29.77839],[-95.48087,29.77861],[-95.47867,29.77865],[-95.47772,29.77881],[-95.47764,29.77871],[-95.47658,29.77889],[-95.47555,29.77893],[-95.47248,29.77898],[-95.47054,29.7793],[-95.46739,29.77936],[-95.46605,29.77925],[-95.46496,29.77894],[-95.46386,29.77841],[-95.46334,29.77804],[-95.46238,29.77713],[-95.462,29.77663],[-95.46175,29.77608],[-95.46162,29.77559],[-95.46159,29.77473],[-95.46146,29.77419],[-95.46119,29.77383],[-95.46081,29.77352],[-95.46042,29.77333],[-95.45982,29.7732],[-95.45661,29.77324],[-95.45661,29.77337],[-95.45661,29.77324],[-95.45414,29.77324],[-95.45371,29.77317],[-95.45301,29.77293],[-95.4523,29.77251],[-95.45182,29.77204],[-95.4515,29.7716],[-95.45118,29.77087],[-95.45104,29.76982],[-95.45089,29.76939],[-95.4506,29.76892],[-95.45011,29.76847],[-95.44942,29.76813],[-95.44884,29.76797],[-95.44622,29.76747],[-95.44568,29.76731],[-95.44121,29.7653],[-95.44055,29.76509],[-95.43952,29.76498],[-95.43822,29.76513],[-95.43683,29.76515],[-95.43464,29.76505],[-95.43319,29.76485],[-95.43188,29.76455],[-95.42876,29.76351],[-95.4282,29.76343],[-95.42618,29.76345],[-95.42582,29.7634],[-95.42536,29.76327],[-95.42487,29.76302],[-95.42367,29.76193],[-95.42357,29.76193],[-95.4234,29.76181],[-95.42326,29.76181],[-95.42248,29.76149],[-95.42191,29.7614],[-95.41634,29.76154],[-95.41568,29.76175],[-95.41476,29.76244],[-95.41412,29.76278],[-95.41335,29.76295],[-95.41249,29.7629],[-95.41196,29.76273],[-95.41047,29.76207],[-95.40967,29.76188],[-95.40898,29.76183],[-95.40865,29.76059],[-95.40852,29.75976],[-95.40747,29.76014],[-95.40659,29.76017],[-95.40577,29.75995],[-95.4045,29.75933],[-95.40336,29.75909],[-95.40275,29.75915],[-95.40214,29.75945],[-95.40186,29.75973],[-95.40139,29.76055],[-95.40115,29.76078],[-95.40067,29.76105],[-95.40026,29.76115],[-95.39896,29.76117],[-95.39746,29.76158],[-95.39692,29.76166],[-95.39604,29.7616],[-95.395,29.76129],[-95.39442,29.76121],[-95.39368,29.76127],[-95.39236,29.76162],[-95.39146,29.76162],[-95.39089,29.76149],[-95.38914,29.76081],[-95.38858,29.76074],[-95.38801,29.76081],[-95.38707,29.76113],[-95.38647,29.76121],[-95.38365,29.76122],[-95.3831,29.76119],[-95.38309,29.76107],[-95.38279,29.76105],[-95.3797,29.76104],[-95.37903,29.76086],[-95.37809,29.76033],[-95.37747,29.7601],[-95.37679,29.76003],[-95.37432,29.76009],[-95.37357,29.75996],[-95.37292,29.75967],[-95.37129,29.75859],[-95.37068,29.75932],[-95.3612,29.7536],[-95.36091,29.75339],[-95.36063,29.75275],[-95.36059,29.75281],[-95.36063,29.75273]]}}]}