{"type":"FeatureCollection","features":[{"type":"Feature","properties":{"name":"Refueling station near mile 1.85 (approx.)"},"geometry":{"type":"Point","coordinates":[-95.38763,29.76869]}},{"type":"Feature","properties":{"name":"Refueling station near mile 3.8 (approx.)"},"geometry":{"type":"Point","coordinates":[-95.40176,29.75317]}},{"type":"Feature","properties":{"name":"Refueling station near mile 5.2 (approx.)"},"geometry":{"type":"Point","coordinates":[-95.41882,29.74624]}},{"type":"Feature","properties":{"name":"Refueling station with energy gels near mile 6.4 (approx.)"},"geometry":{"type":"Point","coordinates":[-95.41863,29.72867]}},{"type":"Feature","properties":{"name":"Refueling station near mile 7.4 (approx.)"},"geometry":{"type":"Point","coordinates":[-95.4054,29.72563]}},{"type":"Feature","properties":{"name":"Refueling station near mile 9.4 (approx.)"},"geometry":{"type":"Point","coordinates":[-95.40547,29.71304]}},{"type":"Feature","properties":{"name":"Refueling station near mile 11.2 (approx.)"},"geometry":{"type":"Point","coordinates":[-95.43547,29.71489]}},{"type":"Feature","properties":{"name":"Refueling station near mile 12.5 (approx.)"},"geometry":{"type":"Point","coordinates":[-95.44248,29.72766]}},{"type":"Feature","properties":{"name":"Refueling station near mile 14.4 (approx.)"},"geometry":{"type":"Point","coordinates":[-95.46055,29.7387]}},{"type":"Feature","properties":{"name":"Refueling station near mile 15.65 (approx.)"},"geometry":{"type":"Point","coordinates":[-95.46857,29.75081]}},{"type":"Feature","properties":{"name":"Refueling station near mile 16.8 (approx.)"},"geometry":{"type":"Point","coordinates":[-95.47811,29.76475]}},{"type":"Feature","properties":{"name":"Refueling station with energy gels near mile 18.3 (approx.)"},"geometry":{"type":"Point","coordinates":[-95.47623,29.7789]}},{"type":"Feature","properties":{"name":"Refueling station near mile 19.85 (approx.)"},"geometry":{"type":"Point","coordinates":[-95.45429,29.77324]}},{"type":"Feature","properties":{"name":"Refueling station near mile 21.6 (approx.)"},"geometry":{"type":"Point","coordinates":[-95.42913,29.76363]}},{"type":"Feature","properties":{"name":"Refueling station near mile 23.15 (approx.)"},"geometry":{"type":"Point","coordinates":[-95.40654,29.76016]}},{"type":"Feature","properties":{"name":"Refueling station near mile 24.7 (approx.)"},"geometry":{"type":"Point","coordinates":[-95.38226,29.76105]}}]}