{"type":"FeatureCollection","features":[{"type":"Feature","properties":{"name":"Start"},"geometry":{"type":"Point","coordinates":[-80.18929,25.78199]}},{"type":"Feature","properties":{"name":"Mile 1 (approx.)"},"geometry":{"type":"Point","coordinates":[-80.17822,25.78746]}},{"type":"Feature","properties":{"name":"Mile 2 (approx.)"},"geometry":{"type":"Point","coordinates":[-80.16583,25.77843]}},{"type":"Feature","properties":{"name":"Mile 3 (approx.)"},"geometry":{"type":"Point","coordinates":[-80.15097,25.77202]}},{"type":"Feature","properties":{"name":"Mile 4 (approx.)"},"geometry":{"type":"Point","coordinates":[-80.13781,25.76994]}},{"type":"Feature","properties":{"name":"Mile 5 (approx.)"},"geometry":{"type":"Point","coordinates":[-80.13181,25.7775]}},{"type":"Feature","properties":{"name":"Mile 6 (approx.)"},"geometry":{"type":"Point","coordinates":[-80.13191,25.78993]}},{"type":"Feature","properties":{"name":"Mile 7 (approx.)"},"geometry":{"type":"Point","coordinates":[-80.13362,25.79994]}},{"type":"Feature","properties":{"name":"Mile 8 (approx.)"},"geometry":{"type":"Point","coordinates":[-80.13782,25.79527]}},{"type":"Feature","properties":{"name":"Mile 9 (approx.)"},"geometry":{"type":"Point","coordinates":[-80.15322,25.79116]}},{"type":"Feature","properties":{"name":"Mile 10 (approx.)"},"geometry":{"type":"Point","coordinates":[-80.16966,25.79073]}},{"type":"Feature","properties":{"name":"Mile 11 (approx.)"},"geometry":{"type":"Point","coordinates":[-80.18607,25.78964]}},{"type":"Feature","properties":{"name":"Mile 12 (approx.)"},"geometry":{"type":"Point","coordinates":[-80.19394,25.78245]}},{"type":"Feature","properties":{"name":"Mile 13 (approx.)"},"geometry":{"type":"Point","coordinates":[-80.19357,25.77114]}},{"type":"Feature","properties":{"name":"Mile 14 (approx.)"},"geometry":{"type":"Point","coordinates":[-80.19205,25.7613]}},{"type":"Feature","properties":{"name":"Mile 15 (approx.)"},"geometry":{"type":"Point","coordinates":[-80.2028,25.7512]}},{"type":"Feature","properties":{"name":"Mile 16 (approx.)"},"geometry":{"type":"Point","coordinates":[-80.19111,25.74637]}},{"type":"Feature","properties":{"name":"Mile 17 (approx.)"},"geometry":{"type":"Point","coordinates":[-80.20445,25.75106]}},{"type":"Feature","properties":{"name":"Mile 18 (approx.)"},"geometry":{"type":"Point","coordinates":[-80.2175,25.74253]}},{"type":"Feature","properties":{"name":"Mile 19 (approx.)"},"geometry":{"type":"Point","coordinates":[-80.2311,25.73418]}},{"type":"Feature","properties":{"name":"Mile 20 (approx.)"},"geometry":{"type":"Point","coordinates":[-80.24286,25.72753]}},{"type":"Feature","properties":{"name":"Mile 21 (approx.)"},"geometry":{"type":"Point","coordinates":[-80.23415,25.73184]}},{"type":"Feature","properties":{"name":"Mile 22 (approx.)"},"geometry":{"type":"Point","coordinates":[-80.22385,25.74106]}},{"type":"Feature","properties":{"name":"Mile 23 (approx.)"},"geometry":{"type":"Point","coordinates":[-80.21273,25.74729]}},{"type":"Feature","properties":{"name":"Mile 24 (approx.)"},"geometry":{"type":"Point","coordinates":[-80.20118,25.75377]}},{"type":"Feature","properties":{"name":"Mile 25 (approx.)"},"geometry":{"type":"Point","coordinates":[-80.19326,25.76534]}},{"type":"Feature","properties":{"name":"Mile 26 (approx.)"},"geometry":{"type":"Point","coordinates":[-80.18986,25.77344]}},{"type":"Feature","properties":{"name":"Finish"},"geometry":{"type":"Point","coordinates":[-80.18724,25.77435]}}]}