{"type":"FeatureCollection","features":[{"type":"Feature","properties":{"name":"Miami Marathon course","miles":26.9,"race":"Life Time Miami Marathon","year":2026,"traced_by":"Cairn, along OpenStreetMap roads from the 2026 turn-by-turn directions; approximate"},"geometry":{"type":"LineString","coordinates":[[-80.18929,25.78199],[-80.18927,25.78425],[-80.18901,25.78599],[-80.1891,25.78703],[-80.18151,25.78751],[-80.17903,25.78755],[-80.17801,25.78744],[-80.17696,25.787],[-80.17609,25.78632],[-80.17565,25.78575],[-80.17369,25.78263],[-80.17303,25.78189],[-80.17236,25.78136],[-80.17149,25.78087],[-80.16362,25.77748],[-80.16345,25.7773],[-80.16183,25.77651],[-80.15194,25.77229],[-80.15112,25.77204],[-80.15015,25.77188],[-80.14929,25.77185],[-80.14839,25.77202],[-80.14245,25.77425],[-80.14184,25.77435],[-80.14073,25.77437],[-80.14059,25.77396],[-80.13706,25.76885],[-80.13696,25.76832],[-80.13672,25.76819],[-80.13338,25.7683],[-80.13321,25.76883],[-80.13225,25.7732],[-80.13234,25.77321],[-80.13205,25.77469],[-80.13242,25.77469],[-80.13068,25.78276],[-80.13029,25.78522],[-80.12976,25.78515],[-80.132,25.78542],[-80.13181,25.78667],[-80.13193,25.79065],[-80.13183,25.79065],[-80.13195,25.79468],[-80.13204,25.79503],[-80.13216,25.79835],[-80.13499,25.79681],[-80.13364,25.79981],[-80.1332,25.80297],[-80.13261,25.80373],[-80.13312,25.80365],[-80.13411,25.80376],[-80.13426,25.80371],[-80.13431,25.80362],[-80.13477,25.80008],[-80.13668,25.7959],[-80.14298,25.79244],[-80.14458,25.79167],[-80.14694,25.79149],[-80.1554,25.79105],[-80.16308,25.79076],[-80.16614,25.79059],[-80.16657,25.79062],[-80.1672,25.79084],[-80.16769,25.79089],[-80.16936,25.79081],[-80.16977,25.7907],[-80.17026,25.79045],[-80.17066,25.79037],[-80.17312,25.79031],[-80.17706,25.79005],[-80.18654,25.78962],[-80.19466,25.78939],[-80.19466,25.78867],[-80.1946,25.7885],[-80.19412,25.78808],[-80.19406,25.787],[-80.19411,25.78647],[-80.19363,25.77513],[-80.1956,25.77506],[-80.19557,25.77409],[-80.1936,25.77416],[-80.19352,25.77176],[-80.19362,25.77057],[-80.19357,25.76867],[-80.19375,25.76825],[-80.19412,25.76796],[-80.1941,25.76776],[-80.19399,25.76765],[-80.1938,25.76765],[-80.19379,25.76737],[-80.19209,25.76741],[-80.1915,25.76729],[-80.19127,25.76818],[-80.19033,25.76798],[-80.19286,25.75817],[-80.19299,25.75797],[-80.19286,25.75788],[-80.19299,25.75797],[-80.20292,25.75112],[-80.20353,25.75072],[-80.20415,25.75045],[-80.20397,25.75051],[-80.20326,25.74971],[-80.20233,25.74888],[-80.2018,25.74825],[-80.20094,25.7475],[-80.19982,25.74683],[-80.19869,25.74639],[-80.19747,25.74613],[-80.19626,25.74606],[-80.19368,25.74612],[-80.19078,25.7464],[-80.19382,25.74611],[-80.19668,25.74607],[-80.19779,25.74617],[-80.19901,25.7465],[-80.19968,25.74676],[-80.20045,25.74717],[-80.2014,25.74787],[-80.20233,25.74888],[-80.20326,25.74971],[-80.20397,25.75051],[-80.20415,25.75045],[-80.20419,25.75051],[-80.20403,25.75058],[-80.20469,25.75134],[-80.2203,25.74061],[-80.22134,25.73999],[-80.22703,25.7371],[-80.22791,25.73657],[-80.2292,25.73553],[-80.23523,25.73124],[-80.2372,25.72891],[-80.23879,25.72767],[-80.24008,25.72626],[-80.24027,25.7263],[-80.24225,25.72809],[-80.24374,25.72672],[-80.24501,25.72785],[-80.24506,25.72798],[-80.23938,25.72826],[-80.23879,25.72767],[-80.23731,25.7288],[-80.23649,25.72978],[-80.23637,25.72969],[-80.23523,25.73104],[-80.23396,25.73198],[-80.23351,25.73242],[-80.23475,25.73374],[-80.23447,25.73385],[-80.2299,25.73738],[-80.22842,25.73876],[-80.22173,25.74213],[-80.22086,25.74251],[-80.21763,25.74473],[-80.21877,25.74606],[-80.2188,25.74623],[-80.21872,25.74634],[-80.21361,25.74817],[-80.21339,25.74809],[-80.21237,25.74685],[-80.21241,25.74666],[-80.21297,25.74628],[-80.21263,25.74587],[-80.19431,25.75851],[-80.19405,25.7586],[-80.19316,25.76206],[-80.19334,25.7678],[-80.19341,25.76811],[-80.19337,25.76822],[-80.19348,25.77039],[-80.19345,25.77131],[-80.19352,25.77147],[-80.19352,25.77176],[-80.19361,25.77181],[-80.19364,25.77252],[-80.19552,25.77245],[-80.19555,25.77325],[-80.18728,25.77353],[-80.18718,25.7737],[-80.1873,25.77423],[-80.18721,25.77424],[-80.18724,25.77435]]}}]}