{"type":"FeatureCollection","features":[{"type":"Feature","properties":{"name":"New York City Marathon course","miles":26.5,"race":"TCS New York City Marathon","traced_by":"Cairn, along OpenStreetMap roads; approximate"},"geometry":{"type":"LineString","coordinates":[[-74.0577,40.6031],[-74.0447,40.6066],[-74.02574,40.61606],[-74.03017,40.61834],[-74.02265,40.63677],[-74.02149,40.63791],[-74.02131,40.63798],[-74.02094,40.63831],[-74.00436,40.65428],[-74.00448,40.65435],[-73.9987,40.6599],[-73.99858,40.65983],[-73.99239,40.66582],[-73.98865,40.67032],[-73.98878,40.67038],[-73.98402,40.67612],[-73.98228,40.67866],[-73.98216,40.67861],[-73.97823,40.68446],[-73.97806,40.68488],[-73.97928,40.68661],[-73.97942,40.68668],[-73.97462,40.68719],[-73.95513,40.68945],[-73.95739,40.70077],[-73.96439,40.70706],[-73.96447,40.70727],[-73.96384,40.71048],[-73.96122,40.71457],[-73.95164,40.72349],[-73.95079,40.72377],[-73.95366,40.72883],[-73.95425,40.73021],[-73.95157,40.73046],[-73.95174,40.73077],[-73.95186,40.73121],[-73.95231,40.73392],[-73.95217,40.73393],[-73.95218,40.734],[-73.95253,40.73533],[-73.95293,40.73785],[-73.95285,40.73829],[-73.9515,40.74233],[-73.95126,40.74327],[-73.95141,40.74319],[-73.95131,40.7436],[-73.95141,40.74362],[-73.95139,40.74368],[-73.95364,40.74411],[-73.95222,40.74837],[-73.95221,40.74905],[-73.94372,40.74741],[-73.94366,40.7475],[-73.94355,40.74748],[-73.94328,40.74759],[-73.94326,40.74753],[-73.94323,40.74761],[-73.94309,40.74766],[-73.94309,40.74777],[-73.94201,40.74892],[-73.94207,40.74897],[-73.94065,40.75053],[-73.94056,40.75049],[-73.94036,40.75078],[-73.96055,40.75957],[-73.96284,40.7606],[-73.96292,40.76077],[-73.9629,40.76082],[-73.9615,40.76025],[-73.93178,40.80097],[-73.93121,40.80177],[-73.93139,40.80184],[-73.93121,40.80177],[-73.93062,40.8025],[-73.93012,40.8029],[-73.92604,40.80497],[-73.92562,40.80531],[-73.92533,40.80565],[-73.92424,40.80718],[-73.92654,40.80816],[-73.92514,40.81007],[-73.92687,40.81079],[-73.92998,40.81314],[-73.93205,40.8141],[-73.93228,40.81415],[-73.93484,40.81426],[-73.93619,40.8148],[-73.93624,40.81465],[-73.93485,40.81405],[-73.93624,40.81465],[-73.93622,40.81472],[-73.94276,40.80574],[-73.94291,40.8058],[-73.94296,40.80576],[-73.94382,40.80612],[-73.94401,40.80585],[-73.94432,40.80585],[-73.94453,40.80568],[-73.9448,40.80579],[-73.94526,40.80515],[-73.94512,40.8051],[-73.94557,40.80447],[-73.94545,40.80443],[-73.94556,40.80413],[-73.94543,40.80393],[-73.94563,40.80365],[-73.94462,40.80323],[-73.94941,40.79664],[-73.94916,40.79658],[-73.94891,40.79668],[-73.94911,40.79658],[-73.94932,40.79662],[-73.94933,40.79651],[-73.95329,40.79112],[-73.9534,40.79115],[-73.9586,40.78402],[-73.95884,40.78411],[-73.96044,40.78194],[-73.96067,40.78168],[-73.96091,40.78154],[-73.96155,40.78144],[-73.9626,40.78157],[-73.96352,40.78129],[-73.96375,40.78148],[-73.96406,40.78157],[-73.96446,40.78145],[-73.96474,40.78129],[-73.96511,40.78088],[-73.9653,40.78054],[-73.96548,40.78006],[-73.9657,40.77987],[-73.96578,40.77972],[-73.96555,40.77967],[-73.96578,40.77972],[-73.96589,40.77936],[-73.96531,40.77892],[-73.96524,40.77854],[-73.96465,40.77797],[-73.96524,40.77752],[-73.96535,40.77714],[-73.96562,40.77674],[-73.96564,40.77636],[-73.96573,40.7762],[-73.96625,40.77578],[-73.96657,40.77526],[-73.96744,40.77454],[-73.9676,40.77434],[-73.96785,40.77364],[-73.9675,40.77322],[-73.96749,40.7729],[-73.96765,40.77262],[-73.96808,40.77213],[-73.96847,40.77119],[-73.96942,40.77054],[-73.96986,40.77039],[-73.97003,40.77018],[-73.9704,40.76999],[-73.97071,40.76991],[-73.97094,40.76997],[-73.97118,40.76978],[-73.97116,40.76945],[-73.97093,40.76909],[-73.97095,40.76857],[-73.97115,40.76828],[-73.97115,40.76815],[-73.97222,40.76667],[-73.97235,40.76583],[-73.97281,40.76517],[-73.9725,40.765],[-73.97256,40.76492],[-73.97296,40.7651],[-73.97317,40.76509],[-73.97331,40.765],[-73.97366,40.76457],[-73.98078,40.7676],[-73.98128,40.76791],[-73.98147,40.76826],[-73.98152,40.76855],[-73.9814,40.76846],[-73.9812,40.76851],[-73.98079,40.76877],[-73.98079,40.76891],[-73.98067,40.76913],[-73.98025,40.76935],[-73.98004,40.76928],[-73.97971,40.7698],[-73.97907,40.77045],[-73.97763,40.77152],[-73.97772,40.77158],[-73.97731,40.7719],[-73.97711,40.77219],[-73.97721,40.77221]]}}]}