{"type":"FeatureCollection","features":[{"type":"Feature","properties":{"name":"Start"},"geometry":{"type":"Point","coordinates":[-75.1751,39.96118]}},{"type":"Feature","properties":{"name":"Mile 1 (approx.)"},"geometry":{"type":"Point","coordinates":[-75.15978,39.95398]}},{"type":"Feature","properties":{"name":"Mile 2 (approx.)"},"geometry":{"type":"Point","coordinates":[-75.14288,39.95378]}},{"type":"Feature","properties":{"name":"Mile 3 (approx.)"},"geometry":{"type":"Point","coordinates":[-75.14238,39.94124]}},{"type":"Feature","properties":{"name":"Mile 4 (approx.)"},"geometry":{"type":"Point","coordinates":[-75.14475,39.9379]}},{"type":"Feature","properties":{"name":"Mile 5 (approx.)"},"geometry":{"type":"Point","coordinates":[-75.15123,39.94707]}},{"type":"Feature","properties":{"name":"Mile 6 (approx.)"},"geometry":{"type":"Point","coordinates":[-75.16683,39.95124]}},{"type":"Feature","properties":{"name":"Mile 7 (approx.)"},"geometry":{"type":"Point","coordinates":[-75.18574,39.95359]}},{"type":"Feature","properties":{"name":"Mile 8 (approx.)"},"geometry":{"type":"Point","coordinates":[-75.19165,39.96422]}},{"type":"Feature","properties":{"name":"Mile 9 (approx.)"},"geometry":{"type":"Point","coordinates":[-75.19879,39.97621]}},{"type":"Feature","properties":{"name":"Mile 10 (approx.)"},"geometry":{"type":"Point","coordinates":[-75.21394,39.98023]}},{"type":"Feature","properties":{"name":"Mile 11 (approx.)"},"geometry":{"type":"Point","coordinates":[-75.21232,39.98136]}},{"type":"Feature","properties":{"name":"Mile 12 (approx.)"},"geometry":{"type":"Point","coordinates":[-75.20417,39.98032]}},{"type":"Feature","properties":{"name":"Mile 13 (approx.)"},"geometry":{"type":"Point","coordinates":[-75.19241,39.97021]}},{"type":"Feature","properties":{"name":"Mile 14 (approx.)"},"geometry":{"type":"Point","coordinates":[-75.17816,39.96491]}},{"type":"Feature","properties":{"name":"Mile 15 (approx.)"},"geometry":{"type":"Point","coordinates":[-75.19075,39.97393]}},{"type":"Feature","properties":{"name":"Mile 16 (approx.)"},"geometry":{"type":"Point","coordinates":[-75.19682,39.98624]}},{"type":"Feature","properties":{"name":"Mile 17 (approx.)"},"geometry":{"type":"Point","coordinates":[-75.19139,39.99593]}},{"type":"Feature","properties":{"name":"Mile 18 (approx.)"},"geometry":{"type":"Point","coordinates":[-75.19428,40.00895]}},{"type":"Feature","properties":{"name":"Mile 19 (approx.)"},"geometry":{"type":"Point","coordinates":[-75.21054,40.01612]}},{"type":"Feature","properties":{"name":"Mile 20 (approx.)"},"geometry":{"type":"Point","coordinates":[-75.22441,40.02578]}},{"type":"Feature","properties":{"name":"Mile 21 (approx.)"},"geometry":{"type":"Point","coordinates":[-75.21321,40.01745]}},{"type":"Feature","properties":{"name":"Mile 22 (approx.)"},"geometry":{"type":"Point","coordinates":[-75.1972,40.01011]}},{"type":"Feature","properties":{"name":"Mile 23 (approx.)"},"geometry":{"type":"Point","coordinates":[-75.19075,39.99836]}},{"type":"Feature","properties":{"name":"Mile 24 (approx.)"},"geometry":{"type":"Point","coordinates":[-75.19569,39.9883]}},{"type":"Feature","properties":{"name":"Mile 25 (approx.)"},"geometry":{"type":"Point","coordinates":[-75.19236,39.97608]}},{"type":"Feature","properties":{"name":"Mile 26 (approx.)"},"geometry":{"type":"Point","coordinates":[-75.17997,39.96696]}},{"type":"Feature","properties":{"name":"Finish"},"geometry":{"type":"Point","coordinates":[-75.1779,39.96449]}}]}