{"type":"FeatureCollection","features":[{"type":"Feature","properties":{"name":"Philadelphia Marathon course","miles":26.6,"race":"Philadelphia Marathon","year":2025,"traced_by":"Cairn, along OpenStreetMap roads from the 2025 road closures and mile-by-mile spectator guide; approximate"},"geometry":{"type":"LineString","coordinates":[[-75.1751,39.96118],[-75.17203,39.95892],[-75.17206,39.95881],[-75.17156,39.95856],[-75.17142,39.95837],[-75.17128,39.95774],[-75.17109,39.95752],[-75.17083,39.9574],[-75.17008,39.95731],[-75.1694,39.95699],[-75.16666,39.95497],[-75.16625,39.95478],[-75.1468,39.95238],[-75.14642,39.95421],[-75.1429,39.95378],[-75.14136,39.95376],[-75.14,39.95353],[-75.14049,39.952],[-75.14096,39.95007],[-75.14209,39.94489],[-75.14229,39.94335],[-75.14238,39.94152],[-75.1423,39.93614],[-75.14241,39.93564],[-75.14283,39.93483],[-75.14263,39.93474],[-75.14335,39.93333],[-75.14361,39.93335],[-75.14365,39.93326],[-75.14556,39.93354],[-75.14559,39.93343],[-75.14573,39.93345],[-75.14407,39.94099],[-75.15234,39.94202],[-75.15076,39.94924],[-75.1918,39.95434],[-75.19085,39.95882],[-75.19088,39.96017],[-75.19237,39.96797],[-75.19482,39.97402],[-75.19513,39.97521],[-75.19497,39.97523],[-75.195,39.97535],[-75.19524,39.97556],[-75.19563,39.97572],[-75.19738,39.97607],[-75.1987,39.97621],[-75.19941,39.9762],[-75.20016,39.97596],[-75.20055,39.9759],[-75.20088,39.97594],[-75.20192,39.97626],[-75.20248,39.97629],[-75.20484,39.97568],[-75.20555,39.97566],[-75.20598,39.97576],[-75.20987,39.9772],[-75.21002,39.97718],[-75.21006,39.97727],[-75.20995,39.97731],[-75.20921,39.97848],[-75.21416,39.98031],[-75.21563,39.98566],[-75.2153,39.9858],[-75.21465,39.98594],[-75.21417,39.98594],[-75.21372,39.98584],[-75.21324,39.98555],[-75.21312,39.98517],[-75.21303,39.98518],[-75.21288,39.98437],[-75.21264,39.98412],[-75.21246,39.98405],[-75.2121,39.98404],[-75.21072,39.98417],[-75.2106,39.98363],[-75.21088,39.9836],[-75.21078,39.98309],[-75.21051,39.98311],[-75.21049,39.98296],[-75.21069,39.98247],[-75.21123,39.98227],[-75.21236,39.98159],[-75.21225,39.98101],[-75.21196,39.981],[-75.21133,39.98082],[-75.21068,39.98078],[-75.21009,39.98087],[-75.20884,39.98132],[-75.20833,39.98132],[-75.20792,39.98121],[-75.20767,39.98104],[-75.20753,39.98085],[-75.20733,39.97996],[-75.20676,39.9788],[-75.20665,39.97872],[-75.20644,39.97871],[-75.20642,39.97991],[-75.2065,39.98033],[-75.20677,39.98076],[-75.20758,39.98152],[-75.2077,39.98171],[-75.20762,39.98189],[-75.20707,39.98236],[-75.20626,39.9828],[-75.20617,39.98237],[-75.20591,39.98175],[-75.20563,39.98133],[-75.20527,39.98098],[-75.20485,39.98067],[-75.20372,39.98009],[-75.20167,39.97884],[-75.20059,39.97798],[-75.1998,39.97765],[-75.19618,39.9768],[-75.19563,39.97659],[-75.19514,39.97631],[-75.19459,39.97587],[-75.19436,39.97555],[-75.19351,39.97355],[-75.19275,39.97085],[-75.19238,39.97014],[-75.19188,39.96949],[-75.19127,39.96891],[-75.1904,39.96831],[-75.18822,39.96732],[-75.18737,39.96684],[-75.18472,39.9648],[-75.18215,39.96405],[-75.18107,39.96385],[-75.1806,39.9639],[-75.17977,39.96422],[-75.17922,39.96469],[-75.17882,39.96486],[-75.17841,39.96482],[-75.17775,39.9644],[-75.17915,39.96615],[-75.17984,39.96689],[-75.18055,39.96729],[-75.18159,39.96762],[-75.18241,39.96824],[-75.1833,39.96877],[-75.18426,39.96919],[-75.18501,39.96942],[-75.18905,39.97],[-75.18938,39.9701],[-75.1897,39.97029],[-75.18996,39.97059],[-75.19007,39.97094],[-75.19008,39.97136],[-75.18992,39.97204],[-75.19001,39.97249],[-75.19058,39.97366],[-75.19118,39.97463],[-75.19176,39.97542],[-75.19266,39.97641],[-75.19436,39.97806],[-75.19804,39.9806],[-75.19798,39.98057],[-75.198,39.9807],[-75.19763,39.98154],[-75.19778,39.98278],[-75.19772,39.98343],[-75.1971,39.98474],[-75.19682,39.98554],[-75.19677,39.98591],[-75.19687,39.98662],[-75.19684,39.98728],[-75.19651,39.98792],[-75.19634,39.98809],[-75.1959,39.98828],[-75.19435,39.98843],[-75.19164,39.98904],[-75.19085,39.98952],[-75.19016,39.99017],[-75.18962,39.99091],[-75.18936,39.99164],[-75.18935,39.99197],[-75.18943,39.99238],[-75.18954,39.99265],[-75.18979,39.99293],[-75.19053,39.99325],[-75.19182,39.99336],[-75.19209,39.99356],[-75.1922,39.99382],[-75.19208,39.99444],[-75.19126,39.99621],[-75.19094,39.9974],[-75.19054,39.99948],[-75.19061,40.00026],[-75.19055,40.00098],[-75.19025,40.00209],[-75.19046,40.00354],[-75.19064,40.00403],[-75.1907,40.00488],[-75.19106,40.00581],[-75.19189,40.00697],[-75.19265,40.00751],[-75.19236,40.00771],[-75.19411,40.00846],[-75.19416,40.00852],[-75.19409,40.00861],[-75.19415,40.00865],[-75.19401,40.00884],[-75.19938,40.01096],[-75.19935,40.01101],[-75.20046,40.01148],[-75.20118,40.01203],[-75.20216,40.01319],[-75.20285,40.01368],[-75.205,40.01447],[-75.20906,40.01559],[-75.21111,40.01633],[-75.2119,40.01647],[-75.21244,40.01675],[-75.21319,40.01742],[-75.21442,40.0192],[-75.22129,40.02452],[-75.22586,40.02637],[-75.22129,40.02452],[-75.21442,40.0192],[-75.21319,40.01742],[-75.21244,40.01675],[-75.2119,40.01647],[-75.21111,40.01633],[-75.20906,40.01559],[-75.20525,40.01455],[-75.203,40.01375],[-75.20216,40.01319],[-75.20118,40.01203],[-75.20046,40.01148],[-75.19935,40.01101],[-75.19938,40.01096],[-75.19411,40.0089],[-75.19401,40.00884],[-75.19415,40.00865],[-75.19409,40.00861],[-75.19416,40.00852],[-75.19411,40.00846],[-75.19236,40.00771],[-75.19254,40.00757],[-75.19248,40.00752],[-75.19256,40.00746],[-75.19189,40.00697],[-75.19133,40.00625],[-75.19106,40.00581],[-75.19076,40.00509],[-75.19067,40.00471],[-75.19064,40.00403],[-75.19046,40.00354],[-75.19025,40.00209],[-75.19055,40.00098],[-75.19061,40.00026],[-75.19054,39.99948],[-75.19094,39.9974],[-75.19126,39.99621],[-75.19208,39.99444],[-75.1922,39.99382],[-75.19209,39.99356],[-75.19182,39.99336],[-75.19053,39.99325],[-75.18979,39.99293],[-75.18954,39.99265],[-75.18943,39.99238],[-75.18935,39.99197],[-75.18936,39.99164],[-75.18962,39.99091],[-75.19016,39.99017],[-75.19085,39.98952],[-75.19164,39.98904],[-75.19435,39.98843],[-75.1959,39.98828],[-75.19634,39.98809],[-75.19651,39.98792],[-75.19684,39.98728],[-75.19687,39.98662],[-75.19677,39.98591],[-75.19682,39.98554],[-75.1971,39.98474],[-75.19772,39.98343],[-75.19778,39.98278],[-75.19763,39.98154],[-75.198,39.9807],[-75.19798,39.98057],[-75.19804,39.9806],[-75.19436,39.97806],[-75.19266,39.97641],[-75.19176,39.97542],[-75.19118,39.97463],[-75.19058,39.97366],[-75.19001,39.97249],[-75.18992,39.97204],[-75.19008,39.97136],[-75.19007,39.97094],[-75.18996,39.97059],[-75.1897,39.97029],[-75.18938,39.9701],[-75.18905,39.97],[-75.18511,39.96944],[-75.18434,39.96922],[-75.18343,39.96883],[-75.18252,39.96832],[-75.18159,39.96762],[-75.18055,39.96729],[-75.17984,39.96689],[-75.17915,39.96615],[-75.17775,39.9644],[-75.1779,39.96449]]}}]}